BusinessName,Address,Suite,City,State,Zip,BusinessType,OwnerName,X,Y,Location
CASA LA LICIOUS,1367 SAINT ANTHONY AVE,,NEW ORLEANS,LA,70116,4703 - BED & BREAKFAST INNS,CASA LA LICIOUS,,,
CASA PELICAN LLC,712 PELICAN ST,,NEW ORLEANS,LA,70114,4703 - BED & BREAKFAST INNS,CASA PELICAN LLC,,,
HAMPTON INN - ST. CHARLES,3626 SAINT CHARLES AVE,,NEW ORLEANS,LA,70115,4701 - HOTELS (EXC CASINO HOTELS) & MOTELS,"BRE NOLA PROPERTY OWNER, LLC",,,
HISTORIC STREETCAR INN,1509 SAINT CHARLES AVE,,NEW ORLEANS,LA,70130,4701 - HOTELS (EXC CASINO HOTELS) & MOTELS,"1509 ST. CHARLES AVE, LLC",,,
JELLY ROLL SUITES,320 ANDREW HIGGINS ST,,NEW ORLEANS,LA,70130,4701 - HOTELS (EXC CASINO HOTELS) & MOTELS,"VENTURE CCR OF N O,LLC",,,
MOTEL 6,12330 I-10 E SERVICE RD,,NEW ORLEANS,LA,70128,4701 - HOTELS (EXC CASINO HOTELS) & MOTELS,G6 HOSPITALITY PROPERTY LLC,,,
PIERRE COULON GUEST HOUSE,712-14 SPAIN ST,,NEW ORLEANS,LA,70117,4703 - BED & BREAKFAST INNS,CULTURAL EXCHANGE SVCS  LLC,,,
RODEWAY INN & SUITES,8400 I 10 SERVICE RD,,NEW ORLEANS,LA,70127,4701 - HOTELS (EXC CASINO HOTELS) & MOTELS,NEW STAR HOTEL MANAGEMENT LLC,,,
STUDIO 6 #6000,12330 I-10 SERVICE RD,,NEW ORLEANS,LA,70128,4701 - HOTELS (EXC CASINO HOTELS) & MOTELS,G6 HOSPITALITY PROPERTY LLC,,,
CHATEAU ESPLANADE,1261 ESPLANADE AVE,,NEW ORLEANS,LA,70116,4701 - HOTELS (EXC CASINO HOTELS) & MOTELS,HOTEL STORYVILLE LLC,3682245.887,535893.628,"(29.9674989960424, -90.0655622825085)"
HG NEW ORLEANS CONVENTION CENTER,1001 S PETERS ST,,NEW ORLEANS,LA,70130,4701 - HOTELS (EXC CASINO HOTELS) & MOTELS,"INTERSTATE MANAGEMENT COMPANY, LLC.",3682223.617,526508.9569,"(29.9416950126385, -90.0659604150431)"
LOOKOUT INN NEW ORLEANS,833 POLAND AVE,,NEW ORLEANS,LA,70117,4701 - HOTELS (EXC CASINO HOTELS) & MOTELS,LOOKOUT INN NEW ORLEANS LLC,3692887.862,534089.6922,"(29.9622107611043, -90.0320195529497)"
ACE HOTEL,600 CARONDELET ST,,NEW ORLEANS,LA,70130,4701 - HOTELS (EXC CASINO HOTELS) & MOTELS,ACE GROUP NEW ORLEANS LLC,3680235.169,528927.0085,"(29.9484041719003, -90.0721543198545)"
MONTE CARLO MOTEL,6061 CHEF MENTEUR HWY,,NEW ORLEANS,LA,70125,4701 - HOTELS (EXC CASINO HOTELS) & MOTELS,SAILAXMI LLC,3697070.179,551822.8514,"(30.0108392155705, -90.0181697510768)"
A CREOLE COTTAGE,1827 DAUPHINE ST,,NEW ORLEANS,LA,70116,4703 - BED & BREAKFAST INNS,"EASLEY, MADISON",3683897.139,535260.476,"(29.9657077081588, -90.0603698167966)"
AULD SWEET OLIVE,2460 N RAMPART ST,,NEW ORLEANS,LA,70117,4703 - BED & BREAKFAST INNS,"OLIVE BLOSSOM, LLC",3686348.364,536018.4013,"(29.967716633652, -90.0526022013441)"
WYNDHAM NEW ORLEANS,124 ROYAL ST,,NEW ORLEANS,LA,70130,4701 - HOTELS (EXC CASINO HOTELS) & MOTELS,"BHR LODGING TENANT CO - POYDRAS PARTNERS, LLC",3681355.494,530845.4795,"(29.9536453665486, -90.0685501287426)"
THE QUEEN ANNE HOTEL,1625 PRYTANIA ST,,NEW ORLEANS,LA,70130,4701 - HOTELS (EXC CASINO HOTELS) & MOTELS,"PRYTANIA PARK HOTEL, LTD",3679316.965,524838.3971,"(29.9371896068797, -90.0751952175749)"
QUEEN & CRESCENT HOTEL,344 CAMP ST,,NEW ORLEANS,LA,70130,4701 - HOTELS (EXC CASINO HOTELS) & MOTELS,"EHQ&C LIQUOR,LLC",3681226.951,529538.2479,"(29.9500548215129, -90.0690015589368)"
TIRC HOTEL,1924 ST ANN ST,,NEW ORLEANS,LA,70116,4701 - HOTELS (EXC CASINO HOTELS) & MOTELS,"CHEVALIER, ELAINE",3679194.523,535415.3769,"(29.9662764461849, -90.0752151324154)"
GRENOBLE HOUSE,329 DAUPHINE ST,,NEW ORLEANS,LA,70112,4701 - HOTELS (EXC CASINO HOTELS) & MOTELS,GRENOBLE HOUSE LTD,3681150.038,531976.4869,"(29.9567614880811, -90.0691594706169)"
1851 INN ON ST CHARLES,2409 ST CHARLES AVE,,NEW ORLEANS,LA,70130,4703 - BED & BREAKFAST INNS,PAULA R GEORGE,3676820.874,523210.9717,"(29.932789844734, -90.0831315906279)"
RIVER HOUSE NEW ORLEANS,625 MARIGNY ST,,NEW ORLEANS,LA,70117,4703 - BED & BREAKFAST INNS,"RIVER HOUSE NEW ORLEANS, LLC",3685577.739,534770.9807,"(29.9643103210079, -90.0550797965532)"
THE TREME INN,1100 N PRIEUR ST,,NEW ORLEANS,LA,70116,4701 - HOTELS (EXC CASINO HOTELS) & MOTELS,"FOUCHA INVESTMENTS, LLC",3679901.365,536472.3356,"(29.9691613613754, -90.0729462247849)"
NEW ORLEANS INN,5035 CHEF MENTEUR HWY,,NEW ORLEANS,LA,70126-5017,"4704 - TRAVELER ACCOMMODATION, ALL OTH","CHANDRAKANT, B PATEL    NAYAN B, PATEL",3693062.234,550655.1836,"(30.0077544419487, -90.0308742991757)"
BIENVILLE HOUSE MOTOR HOTEL,320 DECATUR ST,A,NEW ORLEANS,LA,70130,4701 - HOTELS (EXC CASINO HOTELS) & MOTELS,"NEW HOTEL MONTELEONE,LLC",3682413.313,530959.8202,"(29.9539276166384, -90.0652059852819)"
PARKS BOWMAN HOUSE,2705 CHESTNUT ST,,NEW ORLEANS,LA,70130,4703 - BED & BREAKFAST INNS,PARKS BOWMAN ADRIENNE,3676826.399,521633.2427,"(29.9284514385653, -90.0831684927405)"
ANTEBELLUM GUEST HOUSE,1333 ESPLANADE AVE,,NEW ORLEANS,LA,70116,4703 - BED & BREAKFAST INNS,"TEACHOUT,KEITH E II",3681977.051,536105.1721,"(29.9680888453114, -90.0664038833073)"
THE BEE HOUSE,1028 PORT ST,,NEW ORLEANS,LA,70117,4703 - BED & BREAKFAST INNS,THE BEE HOUSE LLC,3687336.897,536206.3215,"(29.9682029305198, -90.0494737472103)"
"SUPERIOR RESTAURANT GROUP, LLC",3636 SAINT CHARLES AVE,,NEW ORLEANS,LA,70115,4701 - HOTELS (EXC CASINO HOTELS) & MOTELS,BEST WESTERN PLUS ST. CHARLES INN,3673311.794,521063.4564,"(29.9269896805502, -90.0942828128379)"
THE DUCHESS,833 6TH ST,,NEW ORLEANS,LA,70115,4703 - BED & BREAKFAST INNS,JUANITA L JACKSON,3677121.647,519877.746,"(29.9236155313316, -90.0822969630205)"
THE ROOSEVELT HOTEL WAC,123 BARONNE ST,,NEW ORLEANS,LA,70112,4701 - HOTELS (EXC CASINO HOTELS) & MOTELS,"FCH SUB-TENANT, LLC",3680371.079,530940.8374,"(29.9539374097094, -90.071655182224)"
HOLIDAY INN EXPRESS,7049 BULLARD AVE,,NEW ORLEANS,LA,70128,4701 - HOTELS (EXC CASINO HOTELS) & MOTELS,LAKSHMI LLC,3714667.986,565718.7197,"(30.0484801958181, -89.9620466020469)"
MONROSE ROW B & B,1303 GOVERNOR NICHOLLS ST,,NEW ORLEANS,LA,70116,4703 - BED & BREAKFAST INNS,1303 B & B LTD,3681943.568,535386.7487,"(29.9661144460927, -90.0665347067278)"
BOHEME DE MARIGNY,735 TOURO ST,,NEW ORLEANS,LA,70116,4703 - BED & BREAKFAST INNS,BOHEME DE MARIGNY LLC,3684352.123,535084.9235,"(29.9652110930664, -90.0589391612329)"
BON MAISON GUEST HOUSE,835 BOURBON ST,,NEW ORLEANS,LA,70116-3106,4702 - ROOMING & BOARDING HOUSES,BON MAISON GUEST HOUSE,3682642.828,533211.5481,"(29.960112114912, -90.0644025345515)"
KATHERINE B SENTER,43 FONTAINEBLEAU DR,,NEW ORLEANS,LA,70125,4703 - BED & BREAKFAST INNS,"SENTER, KATHERINE B",3666291.318,531387.8049,"(29.9555851984752, -90.1160984836188)"
FLEUR DE LIS MANSION,1216 ANNUNCIATION ST,,NEW ORLEANS,LA,70130,4703 - BED & BREAKFAST INNS,"FLEUR DE LIS MANSION, LLC",3681437.921,525320.3282,"(29.9384505518922, -90.068482437876)"
ROSE MANOR,7214 PONTCHARTRAIN BLVD,,NEW ORLEANS,LA,70124,4701 - HOTELS (EXC CASINO HOTELS) & MOTELS,ROSE MANOR LLC,3666437.697,555022.5018,"(30.020568307529, -90.114842650283)"
LONDON LODGE MOTEL,9301 AIRLINE HWY,,NEW ORLEANS,LA,70118,4701 - HOTELS (EXC CASINO HOTELS) & MOTELS,"AIRLINE COURTYARD INN,LLC",3664275.142,537463.2714,"(29.9723494750492, -90.1222621091529)"
RENAISSANCE ARTS HOTEL,700 TCHOUPITOULAS ST,,NEW ORLEANS,LA,70130,4701 - HOTELS (EXC CASINO HOTELS) & MOTELS,RENAISSANCE HOTEL MANAG,3681790.413,528093.4431,"(29.9460649871294, -90.0672728506824)"
CORNSTALK HOTEL,915 ROYAL ST,1,NEW ORLEANS,LA,70116,4701 - HOTELS (EXC CASINO HOTELS) & MOTELS,SPENCER INVESTMENTS CORP,3683047.224,533166.5057,"(29.9599759434133, -90.0631271156077)"
HOTEL DE LA MONNAIE OWNERS  ASSOCIATION INC,405 ESPLANADE AVE,,NEW ORLEANS,LA,70116,4701 - HOTELS (EXC CASINO HOTELS) & MOTELS,HOTEL DE LA MONNAIE OWNEASSOCIATION INC,3684951.265,533814.2239,"(29.9616987714164, -90.0570917988922)"
FLORVILLE MANOR,1447 N VILLERE ST,,NEW ORLEANS,LA,70116,4703 - BED & BREAKFAST INNS,FLORVILLE MANOR,3682066.198,536534.697,"(29.9692671802428, -90.0661073529398)"
AUBERGE NOUVELLE ORLEANS,1628 CARONDELET ST,,NEW ORLEANS,LA,70130,4703 - BED & BREAKFAST INNS,LABALIZE PROPERTIES,3678556.418,525306.4715,"(29.9384995972566, -90.0775801168904)"
CREOLE INN RUE DAUPHINE,2471 DAUPHINE ST,,NEW ORLEANS,LA,70117,4703 - BED & BREAKFAST INNS,RAYMOND LEDET/SILAS WILLOUGHBY,3686469.988,535375.4474,"(29.9659449955824, -90.0522408115212)"
723 MARIGNY,723 MARIGNY ST,,NEW ORLEANS,LA,70117,4703 - BED & BREAKFAST INNS,"BENOIT, MICHELLE A.",3685564.328,535086.3958,"(29.9651780147465, -90.055111035849)"
JACKS MOTEL,7700 CHEF MENTEUR HWY,,NEW ORLEANS,LA,70126,4701 - HOTELS (EXC CASINO HOTELS) & MOTELS,"SHIV SHAKTI UMA LAXMI, LLC",3703762.215,552499.9715,"(30.0124881427712, -89.9970022002821)"
ZORA-A NEW ORLENS B & B,420 BOUNY ST,,NEW ORLEANS,LA,70114,4703 - BED & BREAKFAST INNS,VICKIE D FILIP,3686024.828,529926.0034,"(29.9509745769855, -90.053838775376)"
NEW ORLEANS MARRIOTT HOTEL-[H/P],555 CANAL ST,A,NEW ORLEANS,LA,70130,4701 - HOTELS (EXC CASINO HOTELS) & MOTELS,MARRIOTT INTERNATIONAL IROGER HAMILTON,3681657.116,530427.7618,"(29.9524876262548, -90.0676123037327)"
ANDREW JACKSON HOTEL,919 ROYAL ST,,NEW ORLEANS,LA,70116,4701 - HOTELS (EXC CASINO HOTELS) & MOTELS,"FQ HOTELS, LLC",3683077.163,533188.6284,"(29.9600358608292, -90.0630318026356)"
FRENCHMEN HOTEL,417 FRENCHMEN ST,,NEW ORLEANS,LA,70116,4701 - HOTELS (EXC CASINO HOTELS) & MOTELS,FRENCHMEN HOTEL LLC,3684803.715,534038.0568,"(29.9623187526419, -90.0575498676484)"
SITE 61 HOSTEL,3701 ULLOA ST,,NEW ORLEANS,LA,70119,4702 - ROOMING & BOARDING HOUSES,SITE 61 HOSTEL,3670901.019,535583.2288,"(29.9669857649718, -90.1014002264642)"
DAUPHINE ORLEANS HOTEL,415 DAUPHINE ST,,NEW ORLEANS,LA,70112,4701 - HOTELS (EXC CASINO HOTELS) & MOTELS,"415 RUE DAUPHINE, LLC",3681389.21,532174.7329,"(29.9572993395706, -90.0683973333859)"
PRINCE CONTI HOTEL,830 CONTI ST,B,NEW ORLEANS,LA,70112-3440,4701 - HOTELS (EXC CASINO HOTELS) & MOTELS,"FUSELIER, ANN VALENTINO VALENTINO, WARREN PAUL",3681394.182,531901.7619,"(29.9565486108807, -90.0683911485525)"
LAFITTE GUEST HOUSE,1003 BOURBON ST,,NEW ORLEANS,LA,70116,4701 - HOTELS (EXC CASINO HOTELS) & MOTELS,C-J'S 1003 BOURBON STREET LLC,3682910.077,533639.5721,"(29.9612808938629, -90.0635436409099)"
WHITNEY HOTEL,610 POYDRAS ST,,NEW ORLEANS,LA,70130,4701 - HOTELS (EXC CASINO HOTELS) & MOTELS,601 POYDRAS ACQUISITION LLC,3680998.164,529214.1799,"(29.9491706830473, -90.0697352294657)"
ROYAL PALMS MOTEL,7800 CHEF MENTEUR HWY,,NEW ORLEANS,LA,70126,4701 - HOTELS (EXC CASINO HOTELS) & MOTELS,HITESH MISTRY,3704221.34,552575.3192,"(30.0126805890446, -89.9955488506431)"
LA BELLE ESPLANADE,2216 ESPLANADE AVE,,NEW ORLEANS,LA,70119,4703 - BED & BREAKFAST INNS,"LA BELLE ESPLANADE, LLC",3679424.881,537915.2148,"(29.9731431864984, -90.0744009289622)"
ASHTON'S BED & BREAKFAST,2023 ESPLANADE AVE,,NEW ORLEANS,LA,70116,4701 - HOTELS (EXC CASINO HOTELS) & MOTELS,PATRICK ASHTON,3680029.597,537628.9555,"(29.972337789583, -90.0725010639725)"
THE NATCHEZ NEW ORLEANS MT,530 NATCHEZ ST,,NEW ORLEANS,LA,70130,4701 - HOTELS (EXC CASINO HOTELS) & MOTELS,"THE NATCHEZ NEW ORLEANS MT, LLC",3681314.045,529450.0964,"(29.9498097918655, -90.0687296323732)"
CAMPECHE,634 N WHITE ST,,NEW ORLEANS,LA,70119,4703 - BED & BREAKFAST INNS,CAMPECHE,3676133.527,537038.3758,"(29.9708312008841, -90.0848258626573)"
EMPRESS HOTEL,1317 URSULINES AVE,,NEW ORLEANS,LA,70116,4701 - HOTELS (EXC CASINO HOTELS) & MOTELS,BROOKS JOAN,3681584.305,535114.2954,"(29.9653762092022, -90.0676787526137)"
BED AND BREAKFAST  ON THE POINT,405 DELARONDE ST,,NEW ORLEANS,LA,70114,4701 - HOTELS (EXC CASINO HOTELS) & MOTELS,BED AND BREAKFAST ON THE POINT LLC,3686648.773,531002.1167,"(29.9539143480815, -90.0518306739301)"
1503 GUEST HOUSE LLC,1503 TCHOUPITOULAS ST,,NEW ORLEANS,LA,70130,4703 - BED & BREAKFAST INNS,1503 GUEST HOUSE LLC,3682225.655,523280.4844,"(29.9328177259658, -90.0660667095787)"
HYATT REGENCY NEW ORLEANS-,601 LOYOLA AVE,,NEW ORLEANS,LA,70113,4701 - HOTELS (EXC CASINO HOTELS) & MOTELS,HYATT LOUISIANA L.L.C.,3678884.57,529323.9332,"(29.9495363880042, -90.0764049746947)"
EMBASSY SUITES CONVENTION HOTEL,315 JULIA ST,,NEW ORLEANS,LA,70130,4701 - HOTELS (EXC CASINO HOTELS) & MOTELS,"ESNOLA JULIA STREET HOTEL OWNER, LLC",3682106.518,527638.1807,"(29.9448035608569, -90.0662906960978)"
STAYBRIDGE SUITES NEW ORLEANS,501 TCHOUPITOULAS ST,,NEW ORLEANS,LA,70130,4701 - HOTELS (EXC CASINO HOTELS) & MOTELS,"HOSPITALITY MANAGEMENT ADVISORS, INC",3681811.713,528981.9793,"(29.9485075157807, -90.0671746007679)"
MOTEL 6 -HOTEL-,4200 OLD GENTILLY RD,,NEW ORLEANS,LA,70126,4701 - HOTELS (EXC CASINO HOTELS) & MOTELS,BAYOU HOSPITALITY LLC,3690544.053,548686.903,"(30.0024208569741, -90.0389001942854)"
LA QUINTA INN & SUITES #983  4701,301 CAMP ST,,NEW ORLEANS,LA,70130,4701 - HOTELS (EXC CASINO HOTELS) & MOTELS,"LQ MANAGEMENT, LLC",3681218.452,529834.138,"(29.9508686776476, -90.0690180842279)"
THE GENTRY HOUSE,1031 ST ANN ST,,NEW ORLEANS,LA,70116,4703 - BED & BREAKFAST INNS,BRIAN/CHARLOTTE FURNESS,3681740.078,533596.4837,"(29.9611980147085, -90.0672397935647)"
THE TOWNHOUSE,1332 MAGAZINE ST,,NEW ORLEANS,LA,70130,4703 - BED & BREAKFAST INNS,"MACIOR MANAGEMENT, LLC",3680515.016,524954.7055,"(29.9374731911349, -90.0714088532692)"
BY H20 BEAUTY,1025 ALVAR ST,,NEW ORLEANS,LA,70117,4703 - BED & BREAKFAST INNS,BY H20 BEAUTY B& B,3691467.577,535150.4324,"(29.9651717001607, -90.0364666764789)"
MAZANT HOLDING LLC,906 MAZANT ST,,NEW ORLEANS,LA,70117,4703 - BED & BREAKFAST INNS,MAZANT HOLDING LLC,3691892.603,534543.8748,"(29.9634906457807, -90.035146171629)"
CLAIBORNE MANSION (THE),2111 DAUPHINE ST,,NEW ORLEANS,LA,70116,4703 - BED & BREAKFAST INNS,CLEO'S INN INC,3684797.82,535321.755,"(29.9658486601817, -90.0575233483612)"
JEFF DAVIS,2011 IBERVILLE ST,,NEW ORLEANS,LA,70112-3332,4702 - ROOMING & BOARDING HOUSES,"JEFF DAVIS PROPERTIES, I",3677744.833,533939.3299,"(29.9622615057352, -90.0798442216657)"
NEW ORLEANS FESTIVAL HOUSE,1653 N BROAD ST,STE 100,NEW ORLEANS,LA,70119,4703 - BED & BREAKFAST INNS,MORGAN CLEVENGER,3679332.667,540588.5653,"(29.9804967619687, -90.0745994134344)"
TONY'S FRENCH QUARTER ROOMS,335 DAUPHINE ST,,NEW ORLEANS,LA,70112-3129,4702 - ROOMING & BOARDING HOUSES,"SASSONE, ANTHONY J",3681244.885,531979.7587,"(29.9567676067903, -90.0688598593748)"
GLADSTONE RESTAURANT HOTEL LOUNGE,3435 DRYADES ST,,NEW ORLEANS,LA,70115-5220,4701 - HOTELS (EXC CASINO HOTELS) & MOTELS,JONES BELINDA,3673440.654,522445.6075,"(29.9307863182422, -90.0938288373345)"
NEW ORLEANS MARRIOTT AT THE CONVENTION CENTER-[H/P,859 CONVENTION CENTER BLVD,,NEW ORLEANS,LA,70130,4701 - HOTELS (EXC CASINO HOTELS) & MOTELS,MARRIOTT HOTEL SERVICES INC,3682585.402,527078.5198,"(29.9432501119176, -90.0647982775791)"
HOTEL MAISON PIERRE LAFITTE   LTD,108 UNIVERSITY PL,,NEW ORLEANS,LA,70112-2502,4701 - HOTELS (EXC CASINO HOTELS) & MOTELS,HOTEL MAISON PIERRE LAFILTD,3680279.087,531225.7662,"(29.9547236526666, -90.071935751179)"
THE OLD NO. 77 HOTEL & CHANDLERY - MAIN,535 TCHOUPITOULAS ST,,NEW ORLEANS,LA,70130,4701 - HOTELS (EXC CASINO HOTELS) & MOTELS,HOTEL AMBASSADOR NOLA LLC,3681770.356,528753.4873,"(29.9478804961101, -90.067313153129)"
ECONO LODGE,4940 CHEF MENTEUR HWY,,NEW ORLEANS,LA,70126-5016,4701 - HOTELS (EXC CASINO HOTELS) & MOTELS,CUB'S MOTEL CORPORATION,3692664.04,550162.0428,"(30.0064109263661, -90.0321499976564)"
ENGINE 24 FIREHOUSE,2711 DAUPHINE ST,,NEW ORLEANS,LA,70117,4703 - BED & BREAKFAST INNS,SO WHAT LLC,3687231.215,535253.8288,"(29.9655871629457, -90.0498411881917)"
ROYAL SUNSHINE,3810 ROYAL ST,,NEW ORLEANS,LA,70117,4703 - BED & BREAKFAST INNS,ANTHONY & DIA NAPOLITANO,3690951.844,533891.8757,"(29.9617271497188, -90.0381402510938)"
HOUSE OF THE RISING SUN,335 PELICAN AVE,,NEW ORLEANS,LA,70114-2347,4703 - BED & BREAKFAST INNS,"HERRIDGE, KEVIN",3686466.771,530408.1174,"(29.9522866489113, -90.0524263302249)"
ROYAL SONESTA HOTEL,300 BOURBON ST,,NEW ORLEANS,LA,70130,4701 - HOTELS (EXC CASINO HOTELS) & MOTELS,SONESTA INTERNATIONAL HOTELS CORPORATION,3681523.245,531576.0317,"(29.9556490451257, -90.0679949678944)"
LE MERIDIEN NEW ORLEANS,333 POYDRAS ST,,NEW ORLEANS,LA,70130,4701 - HOTELS (EXC CASINO HOTELS) & MOTELS,CHSP TRS NEW ORLEANS,3682119.684,529146.7132,"(29.9489511175088, -90.0661964576515)"
CARRIE'S COOL PROPERTIES,1466 MAGAZINE ST,,NEW ORLEANS,LA,70130,4703 - BED & BREAKFAST INNS,ALTEMUS CARRIE J,3680268.216,523964.7871,"(29.934758714204, -90.0722224162318)"
COLLINWOOD,2408 DAUPHINE ST,,NEW ORLEANS,LA,70117,4703 - BED & BREAKFAST INNS,THOMAS COLLINS    CHARLES WOODALL,3685969.628,535250.7422,"(29.9656174721651, -90.0538253277447)"
ROYAL ORLEANS HOTEL,621 ST LOUIS ST,,NEW ORLEANS,LA,70130-2119,4701 - HOTELS (EXC CASINO HOTELS) & MOTELS,OMNI NEW ORLEANS CORP,3682243.922,531852.5314,"(29.9563874228976, -90.0657096696405)"
KATE & DAVES BED & BREAKFAST,715 ST FERDINAND ST,,NEW ORLEANS,LA,70117-7367,4703 - BED & BREAKFAST INNS,DAVE MEEKS & KATE HINDS,3687413.48,534943.8239,"(29.9647291424097, -90.0492765746206)"
AUDUBON COTTAGES,509 DAUPHINE ST,,NEW ORLEANS,LA,70116,4701 - HOTELS (EXC CASINO HOTELS) & MOTELS,509 RUE DAUPHINE LLC.,3681564.638,532403.9119,"(29.9579241775608, -90.0678353933293)"
THE ROSE,2232 ESPLANADE AVE,,NEW ORLEANS,LA,70119-2606,4703 - BED & BREAKFAST INNS,"DRETAR, DEBRA F",3679321.75,537951.1338,"(29.9732450665584, -90.0747253923069)"
PONTCHARTRAIN LANDING,6001 FRANCE RD,,NEW ORLEANS,LA,70126,4701 - HOTELS (EXC CASINO HOTELS) & MOTELS,"LAKE PONTCHARTRAIN PROPERTIES, LLC",3691672.468,556935.7862,"(30.0250671223013, -90.035040139532)"
HARRAH'S POYDRAS HOTEL,228 POYDRAS ST,,NEW ORLEANS,LA,70130,2060 - CASINO HOTELS,"JCC FULTON DEVELOPMENT, LLC",3682272.068,528907.9473,"(29.9482899573016, -90.0657236530428)"
SCHIRO'S GUEST HOUSE,2483 ROYAL ST,,NEW ORLEANS,LA,70117,4703 - BED & BREAKFAST INNS,SCHIRO'S SUPER FOOD STORINC,3686561.677,535009.7621,"(29.9649366687229, -90.0519641750527)"
HYATT FRENCH QUARTER,800 IBERVILLE ST,,NEW ORLEANS,LA,70112,4701 - HOTELS (EXC CASINO HOTELS) & MOTELS,HRI LODGING LLC,3681110.354,531230.9229,"(29.9547126434303, -90.0693107509001)"
GLENROSE MOTEL,7930 CHEF MENTEUR HWY,,NEW ORLEANS,LA,70126-5344,4701 - HOTELS (EXC CASINO HOTELS) & MOTELS,VIDHYUT LODGING LLC,3704841.654,552656.1118,"(30.0128828096036, -89.9935860301339)"
"MAISON TOURISTE, LLC",430 BERMUDA ST,,NEW ORLEANS,LA,70114,4703 - BED & BREAKFAST INNS,"MAISON TOURISTE, LLC",3686680.421,530289.3204,"(29.9519534291342, -90.0517559181533)"
BANANA COURTYARD,1422 N RAMPART ST,,NEW ORLEANS,LA,70116-1912,4703 - BED & BREAKFAST INNS,RAMSEY CHARLES,3683051.163,535449.3032,"(29.9662527327521, -90.0630347626399)"
THE GRAND VICTORIAN BED &     BREAKFAST,2727 ST CHARLES AVE,,NEW ORLEANS,LA,70130-5929,4701 - HOTELS (EXC CASINO HOTELS) & MOTELS,"B A R, LLC",3675937.205,522627.0679,"(29.9312107808917, -90.0859413358407)"
LE PAVILLON HOTEL HOTEL TAX,833 POYDRAS ST,,NEW ORLEANS,LA,70112,4701 - HOTELS (EXC CASINO HOTELS) & MOTELS,"REMINGTON LODGING & HOSPITALITY, LLC",3680011.555,529610.5373,"(29.9502904125285, -90.072836621273)"
BOURBON ORLEANS HOTEL,717 ORLEANS AVE,,NEW ORLEANS,LA,70116,4701 - HOTELS (EXC CASINO HOTELS) & MOTELS,ST ANN LODGING LLC      TAX DEPT,3682502.391,532793.7567,"(29.9589676067682, -90.0648606081599)"
LA MAISON MARIGNY B & B,1421 BOURBON ST,,NEW ORLEANS,LA,70116-2008,4703 - BED & BREAKFAST INNS,"DONIHOO, DEWEY          RAMSEY, JOHN",3683910.181,534784.9931,"(29.9643998956067, -90.0603453121169)"
HUBBARD MANSION BED & BREAKFAST,3535 ST CHARLES AVE,,NEW ORLEANS,LA,70115,4703 - BED & BREAKFAST INNS,"HUBBARD,DON C",3673577.801,521439.6797,"(29.9280162615835, -90.0934302440832)"
RENAISSANCE PERE MARQUETTE,817 COMMON ST,B,NEW ORLEANS,LA,70112,4701 - HOTELS (EXC CASINO HOTELS) & MOTELS,RENAISSANCE HOTEL MGT COLLC,3680475.868,530608.1043,"(29.9530193328643, -90.0713358730272)"
HAMPTON INN & SUITES-NEW ORLEANS DOWNTOWN,226 CARONDELET ST,,NEW ORLEANS,LA,70130,4701 - HOTELS (EXC CASINO HOTELS) & MOTELS,"BRE NOLA PROPERTY OWNER, LLC",3680577.635,530289.8101,"(29.9521410489736, -90.0710256083409)"
SPRINGHILL SUITES BY MARRIOTT H/P,301 ST JOSEPH ST,,NEW ORLEANS,LA,70130-3617,4701 - HOTELS (EXC CASINO HOTELS) & MOTELS,SPRINGHILL SMC CORP,3682122.67,527050.5753,"(29.9431873517638, -90.0662602135417)"
DAYS INN & SUITES,4180 OLD GENTILLY RD,,NEW ORLEANS,LA,70126,4701 - HOTELS (EXC CASINO HOTELS) & MOTELS,4180 GENTILLY HOSPITALITY,3690261.887,548705.3757,"(30.0024804118233, -90.03979093026)"
BEST WAY INN & SUITES & TRAILOR PARK,6042 CHEF MENTEUR HWY,,NEW ORLEANS,LA,70126,4701 - HOTELS (EXC CASINO HOTELS) & MOTELS,"MH RAMA, LLC",3697039.486,551082.2566,"(30.0088038257333, -90.0182935750577)"
THE VICTORIAN HOUSE,914 N RAMPART ST,,NEW ORLEANS,LA,70116,4703 - BED & BREAKFAST INNS,"914 N. RAMPART, LLC",3681955.231,534009.2851,"(29.9623265388455, -90.066545967078)"
WEBBER'S MOTEL,9300 CHEF MENTEUR HWY,,NEW ORLEANS,LA,70127,4701 - HOTELS (EXC CASINO HOTELS) & MOTELS,HARI OM LLC,3710066.579,553782.8098,"(30.0158117790327, -89.9770361297319)"
LA RUE ESPLANADE,1834 ESPLANADE AVE,,NEW ORLEANS,LA,70116,4703 - BED & BREAKFAST INNS,VERANIECE WILLIAMS,3680406.099,537143.0633,"(29.970990356551, -90.071328909555)"
FOUR POINTS BY SHERATON FRENCH QUARTER,541 BOURBON ST,,NEW ORLEANS,LA,70130,4701 - HOTELS (EXC CASINO HOTELS) & MOTELS,"SPRINGFIELD, L.L.C.",3681942.674,532323.0705,"(29.9576904055684, -90.0666444841706)"
ST. HELENE HOTEL,508 CHARTRES ST,,NEW ORLEANS,LA,70130,4701 - HOTELS (EXC CASINO HOTELS) & MOTELS,ST. HELENE HOTEL,3682501.522,531697.1953,"(29.9559524630943, -90.0649016837192)"
COURTYARD BY MARRIOTT IMB-[H/P],124 ST CHARLES AVE,,NEW ORLEANS,LA,70130-2506,4701 - HOTELS (EXC CASINO HOTELS) & MOTELS,COURTYARD MANAGEMENT COR,3681046.195,530381.527,"(29.9523790378898, -90.0695429222497)"
SUITE JAZZ ON FRENCHMEN,628 FRENCHMEN ST,,NEW ORLEANS,LA,70116,4703 - BED & BREAKFAST INNS,SYLVIA PATTERSON & JASON PATTERSON,3684690.572,534704.1037,"(29.9641536154133, -90.0578837462014)"
FAIRCHILD HOUSE,1518 PRYTANIA ST,,NEW ORLEANS,LA,70130-4416,4701 - HOTELS (EXC CASINO HOTELS) & MOTELS,VIATRIX INC,3679597.529,525065.1306,"(29.937804575385, -90.0743015931494)"
HILTON GARDEN INN FQ/CBD,821 GRAVIER ST,,NEW ORLEANS,LA,70112,4701 - HOTELS (EXC CASINO HOTELS) & MOTELS,NEW ORLEANS CBD HOTEL OPERATOR,3680309.651,530352.319,"(29.9523210422171, -90.0718696042826)"
MARIGNY MANOR HOUSE,2125 N RAMPART ST,,NEW ORLEANS,LA,70116,4703 - BED & BREAKFAST INNS,"A BADILLO, LLC",3684822.063,535959.1045,"(29.9676004082426, -90.0574243778576)"
THE TROUBADOUR,1111 GRAVIER ST,,NEW ORLEANS,LA,70112,4701 - HOTELS (EXC CASINO HOTELS) & MOTELS,"SLUMBER CORNERS MASTER TENANT,LLC",3679519.891,530682.3934,"(29.9532525192454, -90.0743518502541)"
FRENCH MARKET INN,501 DECATUR ST,,NEW ORLEANS,LA,70130,4701 - HOTELS (EXC CASINO HOTELS) & MOTELS,501 RUE DECATUR LLC.,3682698.617,531451.4556,"(29.9552707615668, -90.0642879211091)"
SUN OAK MUSEUM AND GUEST HOUSE,2020 BURGUNDY ST,,NEW ORLEANS,LA,70116,4703 - BED & BREAKFAST INNS,SUN OAK MUSEUM AND GUEST HOUSE,3684488.377,535509.6854,"(29.9663748738259, -90.0584939546251)"
MASON MOTEL INC,2309 S CLAIBORNE AVE,,NEW ORLEANS,LA,70125,4701 - HOTELS (EXC CASINO HOTELS) & MOTELS,"HUANG, AMY",3674244.977,527548.9055,"(29.9447947734847, -90.0911150452678)"
RATHB0NE MANSIONS,1244 ESPLANADE AVE,,NEW ORLEANS,LA,70116,4701 - HOTELS (EXC CASINO HOTELS) & MOTELS,"BELLE MANSIONS, LLC",3682206.408,535755.6441,"(29.9671207886867, -90.0656917759325)"
HOMEWOOD SUITES - NEW ORLEANS,901 POYDRAS ST,,NEW ORLEANS,LA,70112,4701 - HOTELS (EXC CASINO HOTELS) & MOTELS,"APPLE SEVEN HOSPITALITY MANAGEMENT, INC",3679896.884,529657.3204,"(29.9504225182386, -90.0731970658559)"
HOTEL PROVINCIAL,1024 CHARTRES ST,,NEW ORLEANS,LA,70116,4701 - HOTELS (EXC CASINO HOTELS) & MOTELS,"HOTEL PROVINCIAL, LLC",3683737.818,533184.2191,"(29.9600035811516, -90.0609457518802)"
WINDSOR COURT HOTEL,300 GRAVIER ST,,NEW ORLEANS,LA,70130,4701 - HOTELS (EXC CASINO HOTELS) & MOTELS,WINDSOR COURT HOTEL PARTNERS LLC,3682094.218,529453.2776,"(29.9497948404032, -90.0662661592716)"
QUALITY INN MAISON ST CHARLES,1319 ST CHARLES AVE,,NEW ORLEANS,LA,70130,4701 - HOTELS (EXC CASINO HOTELS) & MOTELS,QUALITY INN MAISON ST CHARLES,3679374.238,525919.7479,"(29.9401612343594, -90.0749769130156)"
HOTEL ROYAL,1006 ROYAL ST,,NEW ORLEANS,LA,70116,4701 - HOTELS (EXC CASINO HOTELS) & MOTELS,FRENCH QUARTER HOTEL COLLECTION LLC,3683285.84,533377.9724,"(29.9605501291591, -90.0623662120733)"
OLIVIER HOUSE HOTEL,828 TOULOUSE ST,,NEW ORLEANS,LA,70112-3422,4701 - HOTELS (EXC CASINO HOTELS) & MOTELS,"DANNER, JAMES",3681761.757,532463.4434,"(29.9580818814019, -90.067210870741)"
INDIA HOUSE BACKPACKERS HOTEL,124 S LOPEZ ST,,NEW ORLEANS,LA,70119-6214,4701 - HOTELS (EXC CASINO HOTELS) & MOTELS,"SADDINGTON, MARK",3673800.058,535992.5013,"(29.968025104864, -90.0922310379987)"
HOTEL ST MARIE,827 TOULOUSE ST,,NEW ORLEANS,LA,70112-3421,4701 - HOTELS (EXC CASINO HOTELS) & MOTELS,"HOTEL MANAGEMENT OF NEW ORLEANS, LLC",3681906.183,532581.968,"(29.9584033948198, -90.0667506755799)"
BOUGAINVILLEA HOUSE,924 GOVERNOR NICHOLLS ST,,NEW ORLEANS,LA,70116,4703 - BED & BREAKFAST INNS,GREGORY & PATRICIA KAHN,3682905.377,534461.122,"(29.9635400175289, -90.0635297324136)"
COLUMNS HOTEL,3811 ST CHARLES AVE,,NEW ORLEANS,LA,70115,4701 - HOTELS (EXC CASINO HOTELS) & MOTELS,"THE COLUMNS HOTE, INC",3672720.058,521198.4979,"(29.9273785825005, -90.0961461681236)"
BEST WEST ST CHRIS HOTEL,114 MAGAZINE ST,,NEW ORLEANS,LA,70130,4701 - HOTELS (EXC CASINO HOTELS) & MOTELS,114 MAGAZINE OPERATING COMPANY LLC,3681755.461,530010.9655,"(29.9513385898562, -90.0673163147529)"
ST CHARLES GUEST HOUSE,1748 PRYTANIA ST,,NEW ORLEANS,LA,70130,4703 - BED & BREAKFAST INNS,"ST CHARLES GUEST HOUSE, INC",3679128.737,524362.5163,"(29.935886773333, -90.0758059515547)"
DOUBLE TREE BY HILTON NEW ORLEANS,300 CANAL ST,,NEW ORLEANS,LA,70130,4701 - HOTELS (EXC CASINO HOTELS) & MOTELS,"W-S NOLA HOTEL HOLDING VII,LLC",3682143.728,529836.7057,"(29.9508476328934, -90.0660964437057)"
HOLIDAY INN DTN SUPERDOME HTM,330 LOYOLA AVE,,NEW ORLEANS,LA,70112,4701 - HOTELS (EXC CASINO HOTELS) & MOTELS,CIVIC SITE DVMENT CO INC,3679294.583,530648.0554,"(29.9531649061825, -90.0750644675439)"
905 ROYAL HOTEL,905 ROYAL ST,,NEW ORLEANS,LA,70116,4701 - HOTELS (EXC CASINO HOTELS) & MOTELS,905 ROYAL HOTEL,3683024.791,533123.2825,"(29.9598577782522, -90.0631994674944)"
MARQUETTE HOUSE HOTEL,2253 CARONDELET ST,,NEW ORLEANS,LA,70130,4701 - HOTELS (EXC CASINO HOTELS) & MOTELS,MARQUETTE HOUSE HOTEL,3676973.573,523798.7613,"(29.934401491949, -90.0826292798969)"
LAMOTHE HOUSE,621 ESPLANADE AVE,,NEW ORLEANS,LA,70130,4701 - HOTELS (EXC CASINO HOTELS) & MOTELS,"KFK AQUISITION , LLC",3684236.555,534348.3404,"(29.9631892770117, -90.0593299801524)"
HILTON NEW ORLEANS/ ST CHARLES AVENUE,333 ST CHARLES AVE,,NEW ORLEANS,LA,70130,4701 - HOTELS (EXC CASINO HOTELS) & MOTELS,"SUNSTONE ST. CHARLES LESSEE, INC",3680784.357,529767.3411,"(29.9506981717411, -90.0703910598948)"
OMNI RIVERFRONT HOTEL,701 CONVENTION CENTER BLVD,,NEW ORLEANS,LA,70130,4701 - HOTELS (EXC CASINO HOTELS) & MOTELS,"RIVERFRONT LODGING, LLC",3682549.269,527937.0794,"(29.945611962483, -90.0648823536018)"
ST. PHILIP FRENCH QUARTER APARTMENTS,612 ST PHILIP ST,,NEW ORLEANS,LA,70116,4701 - HOTELS (EXC CASINO HOTELS) & MOTELS,GOTHAM ST. PHILIP PROPERTIES,3683391.227,533161.4268,"(29.9599514881259, -90.0620410103638)"
HOMEWOOD SUITES NEW ORLEANS FRENCH QUARTER,317 N RAMPART ST,,NEW ORLEANS,LA,70112,4701 - HOTELS (EXC CASINO HOTELS) & MOTELS,"RAMPART MIXED-USE COMPLEX,LLC",3680452.289,532274.0868,"(29.9576009355358, -90.0713523886403)"
W FRENCH QUARTER HOTEL,316 CHARTRES ST,,NEW ORLEANS,LA,70130,4701 - HOTELS (EXC CASINO HOTELS) & MOTELS,CHSP TRS FRENCH QUARTER LLC,3682048.775,531162.1234,"(29.9544949700263, -90.0663499824243)"
HOTEL INDIGO- MAIN,2203 ST CHARLES AVE,500,NEW ORLEANS,LA,70130,4701 - HOTELS (EXC CASINO HOTELS) & MOTELS,"INTERSTATE MGMT CO, LLC",3677495.316,523719.5034,"(29.9341678890235, -90.0809848850771)"
"DELTA PROFICIENT MANAGEMENT, LLC",201 BARONNE ST,,NEW ORLEANS,LA,70112,4701 - HOTELS (EXC CASINO HOTELS) & MOTELS,BARONNE PLAZA HOTEL,3680155.789,530664.5818,"(29.9531843163535, -90.0723445776528)"
MARIGNY JEWEL,2466 BURGUNDY ST,,NEW ORLEANS,LA,70117,4703 - BED & BREAKFAST INNS,RONALD CHEE-AWAI,3686393.27,535663.1784,"(29.966738514146, -90.052472926262)"
BLUEGREEN RESORTS MANAGEMENT,115 DECATUR ST,,NEW ORLEANS,LA,70130,4701 - HOTELS (EXC CASINO HOTELS) & MOTELS,BLUEGREEN RESORTS MANAGEMENT INC,3681895.304,530392.6421,"(29.9523838222829, -90.0668614404316)"
BLAKE HOTEL NEW ORLEANS,500 ST CHARLES AVE,,NEW ORLEANS,LA,70130,4701 - HOTELS (EXC CASINO HOTELS) & MOTELS,"JM HOTELS, LLC",3680716.767,529174.7377,"(29.9490707599578, -90.0706250944808)"
ST. LOUIS HOTEL,730 BIENVILLE ST,,NEW ORLEANS,LA,70130,4701 - HOTELS (EXC CASINO HOTELS) & MOTELS,"730 RUE BIENVILLE, LLC",3681443.588,531377.7004,"(29.9551061198496, -90.0682534091731)"
STAY ALFRED,822 PERDIDO ST,,NEW ORLEANS,LA,70112,4701 - HOTELS (EXC CASINO HOTELS) & MOTELS,"STAY ALFRED,INC",3680216.609,529806.2567,"(29.9508223709029, -90.0721823664217)"
THE GREEN HOUSE INN,1212 MAGAZINE ST,,NEW ORLEANS,LA,70130,4703 - BED & BREAKFAST INNS,"GREEN HOUSE INN, LLC",3680644.318,525483.6427,"(29.9389236767493, -90.0709822418899)"
BOURGOYNE GUEST HOUSE,839 BOURBON ST,,NEW ORLEANS,LA,70116,4703 - BED & BREAKFAST INNS,STANLEY TYBURSKI,3682661.279,533234.7891,"(29.9601754577615, -90.064343458286)"
MARGARET PLACE,1133 MARGARET PL,,NEW ORLEANS,LA,70130,4703 - BED & BREAKFAST INNS,MARGARET PLACE LLC,3680167.473,526167.5414,"(29.9408186072843, -90.0724639370304)"
NOPSI HOTEL,317 BARONNE ST,,NEW ORLEANS,LA,70112,4701 - HOTELS (EXC CASINO HOTELS) & MOTELS,SALAMANDER NEW ORLEANS LLC,3680070.49,530264.5243,"(29.9520868739067, -90.0726278141096)"
MAISON ROYAL,2036 ROYAL ST,,NEW ORLEANS,LA,70116,4703 - BED & BREAKFAST INNS,GRACIA O SIEGEL,3684508.019,534789.9979,"(29.9643953809491, -90.0584572138744)"
BISHOP'S BED BREAKFAST & BEYOND,7520 HAYNE BLVD,,NEW ORLEANS,LA,70126,4701 - HOTELS (EXC CASINO HOTELS) & MOTELS,CROCKETT REV. JOAN,3700186.99,561994.6708,"(30.0387090828358, -90.0079508672611)"
THE BEN LOUIE,3610 TULANE AVE,,NEW ORLEANS,LA,70119,4701 - HOTELS (EXC CASINO HOTELS) & MOTELS,"BFLO PROPERTIES LLC BK ONE ASSOCIATES, LLC AND ABD",3670994.057,535309.8907,"(29.9662314258878, -90.1011156945354)"
THE PELHAM HOTEL,444 COMMON ST,,NEW ORLEANS,LA,70130,4701 - HOTELS (EXC CASINO HOTELS) & MOTELS,"PELMAN HOSPITALITY, LLC",3681787.725,529872.2716,"(29.9509562480917, -90.0672192807159)"
MARCELIN'S ON NAPOLEON,3110 NAPOLEON AVE,,NEW ORLEANS,LA,70125,4703 - BED & BREAKFAST INNS,MARCELIN BRISCO,3670171.348,526328.8949,"(29.9415609449304, -90.1040180789874)"
DAUZAT HOUSE,337 BURGUNDY ST,,NEW ORLEANS,LA,70112-3115,4702 - ROOMING & BOARDING HOUSES,"DAUZAT, DOROTHY M",3680971.867,532208.1285,"(29.9574038277462, -90.0697140121985)"
SULLY MANSION,2631 PRYTANIA ST,,NEW ORLEANS,LA,70130,4702 - ROOMING & BOARDING HOUSES,"GROUP 42, LLC",3676487.995,522350.7123,"(29.9304343942213, -90.0842120715491)"
PENELOPE'S BED & BREAKFAST,1211 GOVERNOR NICHOLLS ST,,NEW ORLEANS,LA,70116,4703 - BED & BREAKFAST INNS,RANDOLPH PENELOPE,3682126.227,535194.6445,"(29.9655806714556, -90.0659645853347)"
B & W COURTYARDS BED & BREAKFAST,2425 CHARTRES ST,,NEW ORLEANS,LA,70117,4703 - BED & BREAKFAST INNS,B & W COURTYARDS BED & BREAKFAST,3686130.227,534620.9387,"(29.9638807987302, -90.0533403827539)"
TESSIER HOUSE,1617 PENISTON ST,,NEW ORLEANS,LA,70115,4703 - BED & BREAKFAST INNS,GIBSON WALTER S,3672883.056,521265.559,"(29.9275581386221, -90.0956293366179)"
HAMPTON INN & SUITES - CONVENTION CENTER,1201 CONVENTION CENTER BLVD,,NEW ORLEANS,LA,70130,4701 - HOTELS (EXC CASINO HOTELS) & MOTELS,"BRE NOLA PROPERTY OWNER, LLC",3682617.326,525900.8458,"(29.9400109307209, -90.0647386517114)"
MAISON DE LAGNIAPPE,1021 KERLEREC ST,,NEW ORLEANS,LA,70116,4703 - BED & BREAKFAST INNS,"MAISON DE LAGNIAPPE, LLC",3683275.949,535511.577,"(29.9664171101074, -90.0623227127793)"
WILLIAM PERASSO,2111 CHARTRES ST,,NEW ORLEANS,LA,70116,4703 - BED & BREAKFAST INNS,WILLIAM  R PERASSO,3684843.328,534525.5004,"(29.9636578416207, -90.0574076344735)"
COUNTRY INN & SUITES NEW ORLEANS,315 MAGAZINE ST,,NEW ORLEANS,LA,70130,4701 - HOTELS (EXC CASINO HOTELS) & MOTELS,"URBAN MAGAZINE STREET HOTEL,LLC",3681573.819,529596.228,"(29.9502037186814, -90.067904314125)"
SUPER 8 MOTEL,6322 CHEF MENTEUR HWY,,NEW ORLEANS,LA,70126-5129,4701 - HOTELS (EXC CASINO HOTELS) & MOTELS,VENUS INVESTMENTS LLC,3698246.048,551387.311,"(30.0096044807327, -90.0144705809657)"
ALOFT NEW ORLEANS DOWNTOWN,225 BARONNE ST,,NEW ORLEANS,LA,70112,4701 - HOTELS (EXC CASINO HOTELS) & MOTELS,225 BARONNE COMPLEX SUBTENANT,3680112.843,530444.841,"(29.9525814026875, -90.072487820335)"
THE RITZ CARLTON HOTEL CO LLC,921 CANAL ST,,NEW ORLEANS,LA,70112,4701 - HOTELS (EXC CASINO HOTELS) & MOTELS,THE RITZ CARLTON HOTEL C,3680638.966,531414.5745,"(29.9552319133722, -90.0707928216254)"
HILTON NEW ORLEANS RIVERSIDE,2 POYDRAS ST,,NEW ORLEANS,LA,70130,4701 - HOTELS (EXC CASINO HOTELS) & MOTELS,HILTON MANAGEMENT LLC,3683045.572,528712.8144,"(29.9477298559466, -90.0632882153656)"
CHATEAU LEMOYNE  ATTN: FINANCE DEPT:,301 DAUPHINE ST,B,NEW ORLEANS,LA,70112,4701 - HOTELS (EXC CASINO HOTELS) & MOTELS,HI CHAT-LEM INC,3681071.895,531801.4778,"(29.9562826427676, -90.0694123162999)"
THE PRYTANIA OAKS HOTEL,1618 PRYTANIA ST,,NEW ORLEANS,LA,70130,4701 - HOTELS (EXC CASINO HOTELS) & MOTELS,"THE PRYTANIA PARK HOTEL, LTD",3679403.822,524791.1908,"(29.9370571825833, -90.0749226396131)"
SOUTHERN COMFORT BED & BREAKFAST,1739 MARENGO ST,,NEW ORLEANS,LA,70115-4729,4703 - BED & BREAKFAST INNS,CYNTHIA L QUICK,3671983.043,521665.9617,"(29.928685818426, -90.0984568422355)"
MONTELEONE HOTEL,214 ROYAL ST,A,NEW ORLEANS,LA,70130,4701 - HOTELS (EXC CASINO HOTELS) & MOTELS,"NEW HOTEL MONTELEONE,LLC",3681611.072,531183.8721,"(29.9545680720516, -90.0677313198674)"
STAY BRIDGE NEW ORLEANS,501 TCHOUPITOULAS ST,,NEW ORLEANS,LA,70130,4701 - HOTELS (EXC CASINO HOTELS) & MOTELS,"SB NOLA HOTEL OPCO, LLC",3681811.713,528981.9793,"(29.9485075157807, -90.0671746007679)"
FAIRFIELD INN & SUITES,346 BARONNE ST,,NEW ORLEANS,LA,70112,4701 - HOTELS (EXC CASINO HOTELS) & MOTELS,"NEW ORLEANS HOTEL MANAGEMENT, LLC",3680067.082,529922.5626,"(29.9511466974797, -90.0726504557239)"
AC HOTEL NEW ORLEANS BOURBON/FRENCH QUARTER AREA,221 CARONDELET ST,,NEW ORLEANS,LA,70130,4701 - HOTELS (EXC CASINO HOTELS) & MOTELS,"COTTON EXCHANGE INVESTMENT PROPERTIES,LLC",3680519.8,530366.1059,"(29.9523525883641, -90.0712055731135)"
PLACE D'ARMES HOTEL,625 ST ANN ST,,NEW ORLEANS,LA,70116-3212,4701 - HOTELS (EXC CASINO HOTELS) & MOTELS,"HOTEL MANAGEMENT OF NEW ORLEANS, LLC",3682938.904,532682.7831,"(29.9586491729688, -90.0634860965598)"
COMFORT SUITES,7051 BULLARD AVE,,NEW ORLEANS,LA,70128-2307,4701 - HOTELS (EXC CASINO HOTELS) & MOTELS,"TULSI HOSPITALITY, LLC",3714519.346,565770.8903,"(30.048628534129, -89.9625144153123)"
HILTON N O RIVERSIDE HOTEL,2 POYDRAS ST,2ND FL,NEW ORLEANS,LA,70130,4701 - HOTELS (EXC CASINO HOTELS) & MOTELS,"INTERNATIONAL RIVERCENTER LESSEE, L.L.C.",3683045.572,528712.8144,"(29.9477298559466, -90.0632882153656)"
OAKVIEW BED & BREAKFAST,1172 CITY PARK AVE,,NEW ORLEANS,LA,70119,4703 - BED & BREAKFAST INNS,RUSSELL BOWIE,3673668.737,541386.0675,"(29.9828594861658, -90.092461296772)"
ECONOMY INN,8310 CHEF MENTEUR HWY,,NEW ORLEANS,LA,70126,"4704 - TRAVELER ACCOMMODATION, ALL OTH",SEAVEN INCORPORATION,3706026.244,552970.7896,"(30.0137099157555, -89.9898317435476)"
STATELY HOME GUEST HOUSE,1247 ESPLANADE AVE,,NEW ORLEANS,LA,70116,4703 - BED & BREAKFAST INNS,"STATELY HOME GUEST HOUSE,LLC",3682323.415,535838.932,"(29.9673462418768, -90.0653193590801)"
THE SAINT HOTEL,931 CANAL ST,,NEW ORLEANS,LA,70112,4701 - HOTELS (EXC CASINO HOTELS) & MOTELS,"CANAL STREET LODGING, LLC.",3680457.569,531370.476,"(29.9551161519605, -90.0713671394454)"
LA MAISON DE LA MUSIQUE,210 OLIVIER ST,,NEW ORLEANS,LA,70114,4703 - BED & BREAKFAST INNS,EDWARD & MARCIA STUBBS,3687256.385,531091.0023,"(29.9541400535753, -90.0499089480438)"
HENRY HOWARD HOTEL,2041 PRYTANIA ST,,NEW ORLEANS,LA,70130,4701 - HOTELS (EXC CASINO HOTELS) & MOTELS,"2041 OPS, LLC",3678226.503,523609.3485,"(29.9338430051227, -90.0786803588393)"
BEST WESTERN FRENCH QUARTER   LANDMARK HOTEL,920 N RAMPART ST,,NEW ORLEANS,LA,70116-3011,4701 - HOTELS (EXC CASINO HOTELS) & MOTELS,NORTH RAMPART CORP,3682008.163,534059.2526,"(29.9624623231638, -90.0663770715928)"
BUDGET INN EXPRESS,8542 CHEF MENTEUR HWY,,NEW ORLEANS,LA,70127-4038,4701 - HOTELS (EXC CASINO HOTELS) & MOTELS,"JHAVERY, JITENDRA       JHAVERY, BHARATI",3707060.686,553179.5478,"(30.0142505299718, -89.9865557173739)"
CRESCENT PALMS MOTEL(HOTEL ACCT),3923 MARTIN LUTHER KING JR BLVD,,NEW ORLEANS,LA,70125,4701 - HOTELS (EXC CASINO HOTELS) & MOTELS,"3923 MLK, LLC",3672271.103,529995.7568,"(29.9515815027577, -90.0972638366657)"
COUNTRY INN & SUITES,5801 READ BLVD,,NEW ORLEANS,LA,70127,4701 - HOTELS (EXC CASINO HOTELS) & MOTELS,"ENTERPRISE VENTURES, INC",3711130.33,560962.8311,"(30.0355193458883, -89.9734059508498)"
MARAIS HOUSE,1123 MARAIS ST,,NEW ORLEANS,LA,70116,4703 - BED & BREAKFAST INNS,MARAIS HOUSE,3681553.892,535351.3952,"(29.966029076082, -90.0677665258845)"
INTER - CONTINENTAL ROOMS,444 ST CHARLES AVE,,NEW ORLEANS,LA,70130,4701 - HOTELS (EXC CASINO HOTELS) & MOTELS,SWVP NEW ORLEANS LLC,3680823.648,529600.9823,"(29.9502395502587, -90.0702727910079)"
CHATEAU HOTEL,1001 CHARTRES ST,,NEW ORLEANS,LA,70130,4701 - HOTELS (EXC CASINO HOTELS) & MOTELS,1001 CHARTRES STREET LLC,3683541.431,533241.8869,"(29.960168142689, -90.0615638793688)"
INTERNATIONAL HOUSE HOTEL,221 CAMP ST,,NEW ORLEANS,LA,70130,4701 - HOTELS (EXC CASINO HOTELS) & MOTELS,"INTERNATIONAL HOUSE, LLC",3681242.449,529949.8157,"(29.9511860242385, -90.0689382847115)"
NONI'S NOLA ON FRENCHMAN,726 FRENCHMEN ST,,NEW ORLEANS,LA,70116,4703 - BED & BREAKFAST INNS,"R&B ON FRENCHMAN, LLC",3684659.788,535055.5687,"(29.965120965031, -90.0579686046821)"
ROYAL ST CHARLES HOTEL,135 ST CHARLES AVE,,NEW ORLEANS,LA,70130,4701 - HOTELS (EXC CASINO HOTELS) & MOTELS,DH RSC MANAGEMENT LLC,3680949.942,530383.9713,"(29.9523886773915, -90.0698467587673)"
CREOLE HOUSE,1013 ST ANN ST,,NEW ORLEANS,LA,70116,4701 - HOTELS (EXC CASINO HOTELS) & MOTELS,"KFK ACQUISITIONS, LLC",3681848.932,533510.0128,"(29.9609569415225, -90.0668990679786)"
DEGAS HOUSE,2306 ESPLANADE AVE,,NEW ORLEANS,LA,70119,4703 - BED & BREAKFAST INNS,"THE DEGAS HOUSE, LLC",3679158.273,538070.8584,"(29.9735792044608, -90.0752375350751)"
TERRELL HOUSE,1441 MAGAZINE ST,,NEW ORLEANS,LA,70130,4703 - BED & BREAKFAST INNS,"O'BRIEN TERRELL HOUSE, LLC",3680239.959,524166.0154,"(29.9353128806252, -90.0723046318246)"
ASTOR CROWN PLAZA NEW ORLEANS ATTN: DIR. OF FIN.,739 CANAL ST,,NEW ORLEANS,LA,70130,4701 - HOTELS (EXC CASINO HOTELS) & MOTELS,MERRITT HOSPITALITY LLC,3681011.371,530920.6984,"(29.953862633153, -90.0696341031303)"
1896 O'MALLEY HOUSE,120 S PIERCE ST,,NEW ORLEANS,LA,70119-6033,4701 - HOTELS (EXC CASINO HOTELS) & MOTELS,WATTS LARRY,3671392.882,537869.3479,"(29.9732572735325, -90.0997691963093)"
1415 CREOLE GARDENS,1415 PRYTANIA ST,,NEW ORLEANS,LA,70130,4701 - HOTELS (EXC CASINO HOTELS) & MOTELS,"CREOLE GARDENS,LLC",3679696.828,525413.5063,"(29.9387594926698, -90.0739760103387)"
SONIAT HOUSE,1133 CHARTRES ST,,NEW ORLEANS,LA,70116,4701 - HOTELS (EXC CASINO HOTELS) & MOTELS,"SONIAT HOUSE INC        DERKS, GERALD",3683864.354,533630.2874,"(29.9612262519371, -90.0605305332607)"
PARKVIEW GUEST HOUSE,7004 ST CHARLES AVE,,NEW ORLEANS,LA,70118,4701 - HOTELS (EXC CASINO HOTELS) & MOTELS,PARKVIEW INN LLC,3663296.786,524243.8191,"(29.9360286576526, -90.1257919179354)"
FRENCH QUARTER SUITES,1119 N RAMPART ST,,NEW ORLEANS,LA,70116,4701 - HOTELS (EXC CASINO HOTELS) & MOTELS,MILLER BLAKE,3682331.769,534701.6324,"(29.9642188047582, -90.0653327198382)"
JEAN LAFITTE HOUSE,613 ESPLANADE AVE,,NEW ORLEANS,LA,70116-2018,"4704 - TRAVELER ACCOMMODATION, ALL OTH",JEAN LAFITTE HOUSE OWNERASSOCIATION,3684273.404,534314.6646,"(29.963095553633, -90.0592147991196)"
MARIE LAVAEAU GUEST HOUSE,1024 ST ANN ST,,NEW ORLEANS,LA,70116,4701 - HOTELS (EXC CASINO HOTELS) & MOTELS,"KFK ACQUISTIONS, LLC",3681728.563,533526.476,"(29.9610058673208, -90.0672785969097)"
HISTORIC URSULINES COTTAGE,1520 URSULINES AVE,,NEW ORLEANS,LA,70116,4703 - BED & BREAKFAST INNS,BENJAMMIN SHANE HARWOOD,3681047.189,535442.02,"(29.9662936417766, -90.069363521883)"
AUDUBON PARK HOUSE,6022 PITT ST,,NEW ORLEANS,LA,70118,4703 - BED & BREAKFAST INNS,MARTIN BARBARA L,3665083.629,521135.1979,"(29.9274290352594, -90.1202546863536)"
ELYSAIN FIELDS INN,930 ELYSIAN FIELDS AVE,,NEW ORLEANS,LA,70117,4703 - BED & BREAKFAST INNS,"ELYSAIN FIELDS INN, INC",3684957.628,535828.8997,"(29.9672382387658, -90.0570008404182)"
LOFT 523,523 GRAVIER ST,,NEW ORLEANS,LA,70130-2701,4701 - HOTELS (EXC CASINO HOTELS) & MOTELS,"INTERNATIONAL HOUSE, LLC",3681471.579,529830.6899,"(29.95085151408, -90.0682189596129)"
CANAL STREET INN,3620 CANAL ST,,NEW ORLEANS,LA,70119,4701 - HOTELS (EXC CASINO HOTELS) & MOTELS,CANAL STREET INN,3672371.725,537235.8133,"(29.9714862557268, -90.0966993991387)"
LOEWS NEW ORLEANS HOTEL,300 POYDRAS ST,,NEW ORLEANS,LA,70130,4701 - HOTELS (EXC CASINO HOTELS) & MOTELS,"IA LODGING NEW ORLEANS TRS, L.L.C.",3682130.824,528855.1993,"(29.9481492137136, -90.066171462474)"
ENTROPY ROOMS,300 S JEFFERSON DAVIS PKWY,,NEW ORLEANS,LA,70119-6232,4702 - ROOMING & BOARDING HOUSES,ENTROPY ENTERPRISES,3672825.833,535970.1486,"(29.9679926212517, -90.0953084444741)"
CHIMES BED & BREAKFAST (THE),1146 CONSTANTINOPLE ST,,NEW ORLEANS,LA,70115,4703 - BED & BREAKFAST INNS,ABBYAD JILL             ABBYAD CHARLES,3672388.888,519896.4287,"(29.9238081372383, -90.097235933889)"
CATAHOULA HOTEL LLC,914 UNION ST,,NEW ORLEANS,LA,70112,4701 - HOTELS (EXC CASINO HOTELS) & MOTELS,KEELY WILLIAMS/ANDREW BROOKS,3679905.222,530137.807,"(29.9517434429462, -90.0731540555158)"
LIONS INN,2517 CHARTRES ST,,NEW ORLEANS,LA,70117,4703 - BED & BREAKFAST INNS,"LIONS INN BED & BREAKFAST NEW ORLEANS, LLC",3686426.525,534639.9346,"(29.963923926526, -90.0524040334696)"
HOTEL LE MARAIS,717 CONTI ST,,NEW ORLEANS,LA,70130,4701 - HOTELS (EXC CASINO HOTELS) & MOTELS,"717 CONTI, LLC",3681763.435,531723.1798,"(29.9560463572393, -90.0672313980382)"
ROYAL BARRACKS GUEST HOUSE,717 BARRACKS ST,,NEW ORLEANS,LA,70116,4702 - ROOMING & BOARDING HOUSES,ROYAL BARRACKS GUEST HOUSE INC,3683773.916,534314.9651,"(29.9631116423374, -90.0607921087349)"
FESTIVA RESORTS,519 FRENCHMEN ST,,NEW ORLEANS,LA,70116,4701 - HOTELS (EXC CASINO HOTELS) & MOTELS,NEW ORLEANS TIME SHARE LLC,3684789.484,534323.4799,"(29.9631040034846, -90.0575847720349)"
2036-38 IBERVILLE,2036-38 IBERVILLE ST,,NEW ORLEANS,LA,70112,4701 - HOTELS (EXC CASINO HOTELS) & MOTELS,"2036-38 IBERVILLE,LLC",,,
2028-30 IBERVILLE LLC,2028-30 IBERVILLE ST,,NEW ORLEANS,LA,70112,4701 - HOTELS (EXC CASINO HOTELS) & MOTELS,2028-30 IBERVILLE LLC,,,
FLEUR DE MARIGNY,919 TOURO ST,,NEW ORLEANS,LA,70116,4703 - BED & BREAKFAST INNS,LAURA B ANDREWS,3684307.383,535689.772,"(29.9668755856128, -90.0590592047366)"
INN ON URSULINES,708 URSULINES AVE,,NEW ORLEANS,LA,70116,4701 - HOTELS (EXC CASINO HOTELS) & MOTELS,KFK AQUISITIONS LLC,3683316.367,533682.2254,"(29.9613857895425, -90.06225915735)"
FESTIVA TRAVEL SERVICES,519 FRENCHMEN ST,,NEW ORLEANS,LA,70116,4701 - HOTELS (EXC CASINO HOTELS) & MOTELS,FESTIVA MANAGEMENT GROUP,3684789.484,534323.4799,"(29.9631040034846, -90.0575847720349)"
HAUNTED HOTEL ON URSULINES,623 URSULINES AVE,,NEW ORLEANS,LA,70116,4702 - ROOMING & BOARDING HOUSES,URSULINES NEW ORLEANS LLC,3683581.001,533548.8827,"(29.9610110683465, -90.0614281657062)"
WYNDHAM GARDEN HOTEL,10100 I 10 SERVICE RD,,NEW ORLEANS,LA,70127,4701 - HOTELS (EXC CASINO HOTELS) & MOTELS,NOLA EAST HOTEL LLC,,,
LITTLE EAZY BED & BREAKFAST,1526 PAUGER ST,,NEW ORLEANS,LA,70116,4703 - BED & BREAKFAST INNS,"WALKER, MARGARET A",3683890.072,535352.8179,"(29.9659618323431, -90.0603888928829)"
MAGNOLIA MANSION HOTEL,2127 PRYTANIA ST,,NEW ORLEANS,LA,70130,4701 - HOTELS (EXC CASINO HOTELS) & MOTELS,MAGNOLIA MANSION LLC,3678027.663,523409.1853,"(29.9332986071222, -90.0793150029912)"
ROYAL STREET COURTYARD,2438 ROYAL ST,,NEW ORLEANS,LA,70117,4701 - HOTELS (EXC CASINO HOTELS) & MOTELS,"LEGE SMITH, LLC",3686198.553,534922.6785,"(29.9647083796932, -90.0531139679717)"
MAISON PERRIER,4117 PERRIER ST,,NEW ORLEANS,LA,70115,4703 - BED & BREAKFAST INNS,"SCHOENBRUN, THOMAS F",3671867.255,520200.863,"(29.9246606970105, -90.0988721909619)"
CKW INC,2624 URSULINES AVE,,NEW ORLEANS,LA,70119-3436,4702 - ROOMING & BOARDING HOUSES,CKW INC,3677844.682,537881.0837,"(29.9730969815914, -90.079392692096)"
HYATT PLACE NEW ORLEANS CONVENTION CENTER,881 CONVENTION CENTER BLVD,,NEW ORLEANS,LA,70130,4701 - HOTELS (EXC CASINO HOTELS) & MOTELS,"ISLAND HOSPITALITY MANAGEMENT II,LLC",3682594.036,526801.3927,"(29.942487842452, -90.0647807045459)"
RELAX INN,13552 CHEF MENTEUR HWY,,NEW ORLEANS,LA,70129-1815,4701 - HOTELS (EXC CASINO HOTELS) & MOTELS,"SHREEJEE, LLC",3726825.339,559823.7689,"(30.0318658702836, -89.923852026504)"
MAISON DUPUY HOTEL,1001 TOULOUSE ST,,NEW ORLEANS,LA,70112,4701 - HOTELS (EXC CASINO HOTELS) & MOTELS,"NEW ORLEANS HOTEL COLLECTION,LLC.",3681378.526,532924.284,"(29.9593606745007, -90.0684049404374)"
LA GALERIE,131 DECATUR ST,,NEW ORLEANS,LA,70130,4701 - HOTELS (EXC CASINO HOTELS) & MOTELS,"LA GALERIE,LLC",3681969.352,530489.3143,"(29.9526473874606, -90.0666242553475)"
AVENUE INN,4125 ST CHARLES AVE,,NEW ORLEANS,LA,70115,4701 - HOTELS (EXC CASINO HOTELS) & MOTELS,"LINDY DEVELOPMENT,LLC",3671719.072,521138.3512,"(29.9272428785317, -90.0993080854694)"
DAYS INN & SUITES NEW ORLEANS EAST,10020 I-10 SERVICE RD,,NEW ORLEANS,LA,70127,4701 - HOTELS (EXC CASINO HOTELS) & MOTELS,"SHREE JALARAMBAPA,LLC",,,
MARK & RON'S B&B,1625 PAUGER ST,,NEW ORLEANS,LA,70116,4706 - SHORT TERM RENTALS/RESIDENTIAL PROPERTIES,"2MEN, LLC",3683985.589,535719.83,"(29.9669680707778, -90.0600743758864)"
PONTCHARTRAIN HOTEL,2031 SAINT CHARLES AVE,,NEW ORLEANS,LA,70130,4701 - HOTELS (EXC CASINO HOTELS) & MOTELS,"AJ PONTCHARTRAIN OWNER,LLC",3677933.488,524054.4196,"(29.9350756233905, -90.0795900214212)"
PRYTANIA PARK HOTEL,1525 PRYTANIA ST,,NEW ORLEANS,LA,70130,4701 - HOTELS (EXC CASINO HOTELS) & MOTELS,PRYTANIA PARK HOTEL LTD,3679494.774,525096.5027,"(29.9378939424183, -90.0746249125391)"
631 DESIRE LLC,631 DESIRE ST,,NEW ORLEANS,LA,70117,4703 - BED & BREAKFAST INNS,631 DESIRE LLC,3689812.743,534098.4136,"(29.9623304119093, -90.0417299829632)"
ST. JAMES HOTEL,330 MAGAZINE ST,,NEW ORLEANS,LA,70130,4701 - HOTELS (EXC CASINO HOTELS) & MOTELS,"BM HOTELS, LLC",3681619.257,529436.9059,"(29.9497642568617, -90.0677663985238)"
APARIUM HOTEL GROUP,2031 SAINT CHARLES AVE,STE #A,NEW ORLEANS,LA,70130,4701 - HOTELS (EXC CASINO HOTELS) & MOTELS,APARIUM HOTEL GROUP LLC,3677933.488,524054.4196,"(29.9350756233905, -90.0795900214212)"
HOTEL 504,1300 CANAL ST,,NEW ORLEANS,LA,70112,4701 - HOTELS (EXC CASINO HOTELS) & MOTELS,"INSITE NEW ORLEANS ONE,LLC",3679515.342,531836.4532,"(29.9564259319667, -90.0743261770644)"
MAISON DUBOIS,1419 DAUPHINE ST,,NEW ORLEANS,LA,70116,4701 - HOTELS (EXC CASINO HOTELS) & MOTELS,PEOPLE SPEAK LLC,3683559.426,535037.0799,"(29.9651037575276, -90.0614441286419)"
NEW ORLEANS JAZZ QUARTERS,1129 ST. PHILLIP ST,,NEW ORLEANS,LA,70116,4701 - HOTELS (EXC CASINO HOTELS) & MOTELS,NEW ORLEANS JAZZ QUARTERS,,,
RESIDENCE INN BY MARRIOTT-[H/P],345 SAINT JOSEPH ST,,NEW ORLEANS,LA,70130,4701 - HOTELS (EXC CASINO HOTELS) & MOTELS,"RESIDENCE INN OF MARRIOTT, LLC.",,,
THE BURGUNDY BED AND BREAKFAST,2513 BURGUNDY ST,,NEW ORLEANS,LA,70117,4703 - BED & BREAKFAST INNS,THE BURGUNDY BED AND BREAKFAST,3686681.025,535744.5891,"(29.9669535174702, -90.0515613237341)"
THE HOTEL MODERN,936 SAINT CHARLES AVE,,NEW ORLEANS,LA,70130,4701 - HOTELS (EXC CASINO HOTELS) & MOTELS,MODERN GUMBO LODGING,3680311.022,527218.7619,"(29.9437047691426, -90.0719741938121)"
THE MERCHANTILE HOTEL,727 S PETERS ST,,NEW ORLEANS,LA,70130,4701 - HOTELS (EXC CASINO HOTELS) & MOTELS,INNISFREE HOTELS INC.,3682204.12,527915.0056,"(29.9455617682364, -90.0659728705608)"
THE QUISBY,1225 ST CHARLES AVE,,NEW ORLEANS,LA,70130,4701 - HOTELS (EXC CASINO HOTELS) & MOTELS,AUDUBON ST CHARLES OPERATOR LLC,3679535.82,526197.5151,"(29.9409201218296, -90.0744571369549)"
THE DRIFTER HOTEL,3522 TULANE AVE,,NEW ORLEANS,LA,70119,4701 - HOTELS (EXC CASINO HOTELS) & MOTELS,"TAI MANAGING MEMBER,LLC",3671282.406,535214.7743,"(29.9659613582932, -90.1002083234743)"
BLUE LAGOON NOLA,4417 DRYADES ST,,NEW ORLEANS,LA,70115,4701 - HOTELS (EXC CASINO HOTELS) & MOTELS,"PEOPLE SPEAK,LLC",3670505.041,522023.3716,"(29.9297122964817, -90.1031104851898)"
BLUE60 GUEST HOUSE,1008 ELYSIAN FIELDS AVE,,NEW ORLEANS,LA,70117,4703 - BED & BREAKFAST INNS,"BLUE60 GUEST HOUSE,LLC",3684941.069,536005.4232,"(29.9677241246168, -90.0570469271323)"
LA DAUPHINE,2316 DAUPHINE ST,,NEW ORLEANS,LA,70117,4703 - BED & BREAKFAST INNS,RUIZ RAYMOND,3685647.067,535191.6446,"(29.9654648740989, -90.0548460437539)"
AIRYN MONET,1816 MARENGO ST,,NEW ORLEANS,LA,70115,4703 - BED & BREAKFAST INNS,"HILLARD,RANDY",3671796.072,521879.5288,"(29.9292785984644, -90.0990398120032)"
A CRESCENT CITY GUEST,612 MARIGNY ST,,NEW ORLEANS,LA,70117,4703 - BED & BREAKFAST INNS,HARRING MATTHEW,3685519.436,534668.188,"(29.9640294647124, -90.0552675337646)"
LANAUX MANSION,547 ESPLANADE AVE,,NEW ORLEANS,LA,70116,4703 - BED & BREAKFAST INNS,BODENHEIMER RUTH,3684418.355,534215.6856,"(29.9628189628033, -90.0587605391945)"
"LA FEMME FRANCAISE NATASHA, LLC",2028-2030 ST. CLAUDE AVE,,NEW ORLEANS,LA,70116,4703 - BED & BREAKFAST INNS,"LA FEMME FRANCAISE NATASHA, LLC",,,
SUNBURST INN,819 MANDEVILLE ST,,NEW ORLEANS,LA,70117,4703 - BED & BREAKFAST INNS,"JOHNSON, DARRELL M",3685875.794,535461.8063,"(29.9662007058991, -90.0541142093417)"
BELLEVILLE COTTAGE BED &      BREAKFAST,317 BELLEVILLE ST,,NEW ORLEANS,LA,70114,4703 - BED & BREAKFAST INNS,ROBERT E GOESER,3687837.268,530614.1349,"(29.952810929002, -90.0480916466138)"
WESTIN NEW ORLEANS CANAL PLACE,100 IBERVILLE ST,,NEW ORLEANS,LA,70130,4701 - HOTELS (EXC CASINO HOTELS) & MOTELS,MERRITT HOSPITALITY LLC,3682746.028,529908.7792,"(29.9510274809981, -90.0641921669027)"
ALDER HOTEL UPTOWN,4545 MAGNOLIA ST,,NEW ORLEANS,LA,70115,4701 - HOTELS (EXC CASINO HOTELS) & MOTELS,"ALDER HOTEL PARTNERS, LLC",3669788.351,524763.2491,"(29.9372672181868, -90.1052802587339)"
SHERATON NEW ORLEANS HOTEL,500 CANAL ST,,NEW ORLEANS,LA,70130,4701 - HOTELS (EXC CASINO HOTELS) & MOTELS,SHERATON OPERATING CORP ATTN ACCOUNTS PAYABLE,3681620.188,530215.8353,"(29.9519060214703, -90.0677362942651)"
H H WHITNEY HOUSE,1923 ESPLANADE AVE,,NEW ORLEANS,LA,70116,4703 - BED & BREAKFAST INNS,SAIZAN RANDALL J        MILLER GLEN D,3680325.677,537396.8306,"(29.971690564501, -90.0715740661946)"
HYATT HOUSE NEW ORLEANS DOWNTOWN,1250 POYDRAS ST,,NEW ORLEANS,LA,70113,4701 - HOTELS (EXC CASINO HOTELS) & MOTELS,SELECT HOTELS GROUP LLC,3678736.86,529752.6343,"(29.9507196270331, -90.0768565173229)"
GARDEN DISTRICT B & B,2418 MAGAZINE ST,,NEW ORLEANS,LA,70130,4703 - BED & BREAKFAST INNS,"DURHAM,RAYNELL          VELEZ,LUIS",3677956.301,521361.0258,"(29.9276689851813, -90.0796110372927)"
FIVE CONTINENTS,1731 ESPLANADE AVE,,NEW ORLEANS,LA,70116,4703 - BED & BREAKFAST INNS,FIVE CONTINENTS,3680829.191,537005.1663,"(29.9705983676472, -90.0699975311805)"
WELCOME ABROAD LLC,2233 BURGUNDY ST,,NEW ORLEANS,LA,70117,4703 - BED & BREAKFAST INNS,WELCOME ABROAD LLC,3685426.897,535644.1686,"(29.9667159114861, -90.0555253942859)"
THE LAUREL GUEST HOME,3626 DELGADO DR,,NEW ORLEANS,LA,70119,4703 - BED & BREAKFAST INNS,LAURA & ELIOT KAMENITZ,3674200.767,540465.0666,"(29.9803111969, -90.0908124179932)"
THE JUNG HOTEL & RESIDENCES,1500 CANAL ST,,NEW ORLEANS,LA,70112,4701 - HOTELS (EXC CASINO HOTELS) & MOTELS,INTERSTATE MANAGEMENT COMPANY LLC,3679081.041,532173.5121,"(29.9573658441731, -90.0756858747129)"
BYWATER BED & BREAKFAST,1026 CLOUET ST,,NEW ORLEANS,LA,70117,4703 - BED & BREAKFAST INNS,"BURT,MARTY              SELLEN,BETTY",3688911.822,535784.3923,"(29.9669941576769, -90.0445150696178)"
IN THE CLEAR NOLA PROPCO LLC,501 TCHOUPITOULAS ST,,NEW ORLEANS,LA,70130,4701 - HOTELS (EXC CASINO HOTELS) & MOTELS,STAYBRIDGE SUITES,3681811.713,528981.9793,"(29.9485075157807, -90.0671746007679)"
1830 DAUPHINE HOUSE,1830 DAUPHINE ST,,NEW ORLEANS,LA,70116,4703 - BED & BREAKFAST INNS,JEFFRIES KAREN,3683898.466,535097.1648,"(29.9652586180562, -90.0603713541045)"
HOLIDAY INN EXPRESS,334 O KEEFE AVE,,NEW ORLEANS,LA,70112,4701 - HOTELS (EXC CASINO HOTELS) & MOTELS,HOLIDAY INN EXPRESS,,,
OLD LA LA'S CREOLE COTTAGE,2125 LAUREL ST,,NEW ORLEANS,LA,70130,4703 - BED & BREAKFAST INNS,OLD LA LA'S CREOLE COTTAGE LLC,3679422.339,521628.2563,"(29.9283595935452, -90.0749738442848)"
MASON D'OR,1911 ROYAL ST,,NEW ORLEANS,LA,70116,4703 - BED & BREAKFAST INNS,OLGA MESCHERSKAYA,3684279.652,534769.4193,"(29.9643457814521, -90.0591790987773)"
MAISON LAFAYETTE,1221 HARMONY ST,,NEW ORLEANS,LA,70115,4703 - BED & BREAKFAST INNS,JOHN E WHARTON,3675594.775,520511.6678,"(29.9254043618078, -90.0870949749972)"
LUCKY INN HOTEL,2625 IBERVILLE ST,,NEW ORLEANS,LA,70119,4701 - HOTELS (EXC CASINO HOTELS) & MOTELS,"JAE INVESTMENTS, LLC",3675958.693,535300.7983,"(29.9660586896722, -90.0854377733833)"
"MONARCH NEW ORLEANS, LP",210 O'KEEFE AVE,,NEW ORLEANS,LA,70112,4701 - HOTELS (EXC CASINO HOTELS) & MOTELS,"MONARCH NEW ORLEANS, LP",3679876.322,530778.3129,"(29.9535054923382, -90.0732230649622)"
PETER AND PAUL HOTEL,2317 BURGUNDY ST,,NEW ORLEANS,LA,70117,4701 - HOTELS (EXC CASINO HOTELS) & MOTELS,PETER AND PAUL MT LLC,3685604.038,535686.6726,"(29.9668273498011, -90.0549644860817)"
MAISON MACARTY,3820 BURGUNDY ST,,NEW ORLEANS,LA,70117,4703 - BED & BREAKFAST INNS,MACARTY HOUSE LLC,3691196.238,534582.1148,"(29.9636174674623, -90.0373438449648)"
LE RICHELIEU CORP,1234 CHARTRES ST,B,NEW ORLEANS,LA,70116,4701 - HOTELS (EXC CASINO HOTELS) & MOTELS,"ROCHEFORT, FRANK        ROCHEFORT, FRANK",3684118.277,533877.6083,"(29.961898541343, -90.0597200115729)"
929 MARIGNY PAINTED LADY'S INN,929 MARIGNY ST,,NEW ORLEANS,LA,70117,4703 - BED & BREAKFAST INNS,"TISKUS,PETER",3685496.778,535852.8226,"(29.9672874944982, -90.055297361098)"
FRENCH QUARTER SUITES,1119 N RAMPART ST,,NEW ORLEANS,LA,70116,4701 - HOTELS (EXC CASINO HOTELS) & MOTELS,"RAMPART HOTEL VENTURES, LLC",3682331.769,534701.6324,"(29.9642188047582, -90.0653327198382)"
INN AT THE OLD JAIL,2552 ST PHILIP ST,,NEW ORLEANS,LA,70119,4703 - BED & BREAKFAST INNS,DOWN BY LAW B & B LLC,3677856.913,537442.0437,"(29.9718894038335, -90.0793692398078)"
KERLEREC GUEST HOUSE,928 KERLEREC ST,,NEW ORLEANS,LA,70116,4703 - BED & BREAKFAST INNS,SCOTT WELLS,3683489.119,535257.2928,"(29.9657114128875, -90.061658437441)"
HOTEL MAISON DE VILLE,727 TOULOUSE ST,,NEW ORLEANS,LA,70130,4701 - HOTELS (EXC CASINO HOTELS) & MOTELS,727  TOULOUSE LLC,3682160.842,532326.7613,"(29.9576939208768, -90.0659554461366)"
A & C CORPORATION,7418 CHEF MENTEUR HWY,,NEW ORLEANS,LA,70126,4701 - HOTELS (EXC CASINO HOTELS) & MOTELS,A & C CORPORATION,3702787.007,552270.6233,"(30.0118887587892, -90.0000917217)"
FRENCH QUARTER MANSION BOUTIQUE HOTEL,730 DUMAINE ST,,NEW ORLEANS,LA,70116,4701 - HOTELS (EXC CASINO HOTELS) & MOTELS,"BISCUIT PALACE GUESTHOUSE,LLC",3682772.975,533182.3704,"(29.9600279224559, -90.0639925780389)"
HOTEL VILLA CONVENTO,616 URSULINES AVE,,NEW ORLEANS,LA,70116,4701 - HOTELS (EXC CASINO HOTELS) & MOTELS,HOTEL VILLA CONVENTO,3683605.575,533463.0508,"(29.9607743098676, -90.0613535721913)"
ROYAL INN OF NEW ORLEANS,4950 CHEF MENTEUR HWY,,NEW ORLEANS,LA,70126,4701 - HOTELS (EXC CASINO HOTELS) & MOTELS,HP11 LLC,3692769.162,550242.8369,"(30.0066297975822, -90.031814993349)"
RUFFINO'S GUEST HOUSE,631 ST PHILIP ST,,NEW ORLEANS,LA,70116,4702 - ROOMING & BOARDING HOUSES,"FRENCH QUARTER HOTEL COLLECTION, LLC",3683342.861,533279.9304,"(29.9602788080758, -90.0621895871545)"
NEW ORLEANS GUEST HOUSE,1118 URSULINES AVE,,NEW ORLEANS,LA,70116,4701 - HOTELS (EXC CASINO HOTELS) & MOTELS,NOGH LLC,3682108.936,534627.7136,"(29.9640223319493, -90.0660389894792)"
HOTEL ST PIERRE,911 BURGUNDY ST,,NEW ORLEANS,LA,70116,4701 - HOTELS (EXC CASINO HOTELS) & MOTELS,FQ HOTELS LLC,3682147.729,533778.8254,"(29.9616870003334, -90.065946134853)"
ST. PETER GUEST HOUSE,1005 ST PETER ST,,NEW ORLEANS,LA,70116,4701 - HOTELS (EXC CASINO HOTELS) & MOTELS,"KFK AQUISTIONS, LLC",3681654.229,533136.6987,"(29.9599363707562, -90.0675269276504)"
CHEZ PALMIERS BED & BREAKFAST,1744 N RAMPART ST,,NEW ORLEANS,LA,70116,4703 - BED & BREAKFAST INNS,CHEZ PALMIERS CORP,3683387.481,535779.8047,"(29.9671512417022, -90.061961096692)"
W.M.COX,2109 CHARTRES ST,,NEW ORLEANS,LA,70116,4703 - BED & BREAKFAST INNS,W.M.COX LLC,3684826.662,534524.7191,"(29.9636562037499, -90.0574602933431)"
THE MAGEE MANOR,3046 DUMAINE ST,,NEW ORLEANS,LA,70119,4703 - BED & BREAKFAST INNS,LINDA MAGEE,3675794.413,538514.8657,"(29.9749012002608, -90.0858460623078)"
HOTEL LE MARAIS,717 CONTI ST,,NEW ORLEANS,LA,70130,4701 - HOTELS (EXC CASINO HOTELS) & MOTELS,"NEW ORLEANS HOTEL COLLECTION, LLC",3681763.435,531723.1798,"(29.9560463572393, -90.0672313980382)"
"MAISON DES LUNES, LLC",601 ELYSIAN FIELDS AVE,,NEW ORLEANS,LA,70117,4703 - BED & BREAKFAST INNS,"MAISON DES LUNES, LLC",3685231.964,534546.8846,"(29.9637047358987, -90.0561796136561)"
MENTONE BED & BREAKFAST,1437 PAUGER ST,,NEW ORLEANS,LA,70116,4703 - BED & BREAKFAST INNS,"COCO, CHARLENE D   &     KIMBRELL, RAGAN",3684011.794,534908.5534,"(29.9647365392649, -90.0600200888747)"
CHATEAU MANAGEMENT,527 MANDEVILLE ST,,NEW ORLEANS,LA,70117,4703 - BED & BREAKFAST INNS,"CHATEAU MANAGEMENT,LLC",3685970.795,534465.4751,"(29.9634582238479, -90.0538493324191)"
WG CREOLE HOUSE,1724  CLIO ST,,NEW ORLEANS,LA,70113,4703 - BED & BREAKFAST INNS,WG CREOLE HOUSE,3679138.508,526693.8117,"(29.9422967692081, -90.075694324818)"
"2532 N RAMPART STREET, LLC",2532 N RAMPART ST,,NEW ORLEANS,LA,70117,4703 - BED & BREAKFAST INNS,"2532 N RAMPART STREET, LLC",3686805.403,536043.2402,"(29.9677708776907, -90.0511579866841)"
NEW ORLEANS COURTYARD HOTEL,1101 N RAMPART ST,,NEW ORLEANS,LA,70116,4701 - HOTELS (EXC CASINO HOTELS) & MOTELS,"RAMPART HOTEL VENTURES, LLC",3682247.682,534592.5562,"(29.9639214409151, -90.0656020727493)"
"CWS CORPORATE LEASING, LLC",9606 N MOPAC EXPY,SUITE 500,AUSTIN,TX,78759,4701 - HOTELS (EXC CASINO HOTELS) & MOTELS,"CWS CORPORATE LEASING, LLC",,,
FRENCHMEN OASIS,1242 FRENCHMEN ST,,NEW ORLEANS,LA,70116,4703 - BED & BREAKFAST INNS,FRENCHMEN ASSOCIATES,3684503.751,536971.9949,"(29.9703952477741, -90.0583940212036)"
ST CHARLES COACH HOUSE,2001 ST CHARLES AVE,,NEW ORLEANS,LA,70130,4701 - HOTELS (EXC CASINO HOTELS) & MOTELS,GRAND BOUTIQUE HOTEL,3678096.037,524165.9723,"(29.9353774650231, -90.0790729993194)"
DRURY INN NEW ORLEANS,820 POYDRAS ST,,NEW ORLEANS,LA,70112,4701 - HOTELS (EXC CASINO HOTELS) & MOTELS,DSW INNS LLC,3680155.4,529418.4154,"(29.9497577899405, -90.0723891075552)"
CAMBRIA NEW ORLEANS DOWNTOWN,632 TCHOUPITOULAS ST,,NEW ORLEANS,LA,70130,4701 - HOTELS (EXC CASINO HOTELS) & MOTELS,FH TCH LLC,3681815.261,528367.9772,"(29.9468191087104, -90.0671848212897)"
NOPSI HOTEL,317 BARONNE ST,,NEW ORLEANS,LA,70112,4701 - HOTELS (EXC CASINO HOTELS) & MOTELS,MERRITT HOSPITALITY LLC,3680070.49,530264.5243,"(29.9520868739067, -90.0726278141096)"
QUALITY INN,12340 S I-10 SERVICE ROAD,,NEW ORLEANS,LA,70128,4701 - HOTELS (EXC CASINO HOTELS) & MOTELS,"JAY MK, LLC",,,
GRAVIER,427 GRAVIER ST,,NEW ORLEANS,LA,70130,4701 - HOTELS (EXC CASINO HOTELS) & MOTELS,"GRAVIER,LLC",3681815.526,529663.7213,"(29.9503819607114, -90.0671387766084)"
THE CONCIERGE CONNECTION,216 BARONNE ST,,NEW ORLEANS,LA,70112,"4704 - TRAVELER ACCOMMODATION, ALL OTH","THE CONCIERGE CONNECTION,LLC",3680226.815,530492.37,"(29.9527086426135, -90.072126296443)"
TULANE HOTEL GROUP INC,3900 TULANE AVE,,NEW ORLEANS,LA,70119,4701 - HOTELS (EXC CASINO HOTELS) & MOTELS,TULANE HOTEL GROUP INC,3670049.177,535735.4107,"(29.9674293694511, -90.1040851984859)"
THE FRENCHMEN HOTEL,417 FRENCHMEN ST,,NEW ORLEANS,LA,70116,4701 - HOTELS (EXC CASINO HOTELS) & MOTELS,"FRENCHMEN OWNER, LLC",3684803.715,534038.0568,"(29.9623187526419, -90.0575498676484)"
WYNDHAM VACATION RESORTS,2111 ST CHARLES AVE,,NEW ORLEANS,LA,70130,4701 - HOTELS (EXC CASINO HOTELS) & MOTELS,"WYNDHAM VACATION RESORTS, INC",3677787.928,523931.6267,"(29.934742361756, -90.0800537932913)"
EXTRA HOLIDAYS,2111 ST. CHARLES AVE,,NEW ORLEANS,LA,70130,4701 - HOTELS (EXC CASINO HOTELS) & MOTELS,"EXTRA HOLIDAYS, LLC",,,
R & B ROOMS,1931 ORLEANS AVE,,NEW ORLEANS,LA,70116,4702 - ROOMING & BOARDING HOUSES,"SMOTHERS, RICHARD H     SMOTHERS, WILLIE B",3679105.961,535350.2686,"(29.9661000939009, -90.0754970663654)"
HOTEL MAZARIN,730 BIENVILLE ST,,NEW ORLEANS,LA,70130,4701 - HOTELS (EXC CASINO HOTELS) & MOTELS,"NEW ORLEANS HOTEL COLLECTION, LLC",3681443.588,531377.7004,"(29.9551061198496, -90.0682534091731)"
BPM HOLDINGS LLC,1027 N RAMPART ST,,NEW ORLEANS,LA,70116,4701 - HOTELS (EXC CASINO HOTELS) & MOTELS,FRENCH QUARTER TOWNHOUSES HOTEL,3682136.165,534464.8685,"(29.9635737355964, -90.065958690206)"
HOSTEEVA,201 MAGAZINE ST,,NEW ORLEANS,LA,70130,4701 - HOTELS (EXC CASINO HOTELS) & MOTELS,"HOSTEEVA, LLC",3681661.669,529919.77,"(29.9510906820734, -90.0676156439047)"
NOLA PLACE,616  LOUISA ST,,NEW ORLEANS,LA,70117,4703 - BED & BREAKFAST INNS,JAMES F. EATON,3689101.408,534158.9734,"(29.9625189583777, -90.043974118993)"
SONDER,427 ESPLANADE AVE,,NEW ORLEANS,LA,70116,4701 - HOTELS (EXC CASINO HOTELS) & MOTELS,"SONDER USA,INC",3684898.94,533831.8834,"(29.9617489312289, -90.0572564111231)"
FEDERAL CITY INN & SUITES,740 HEBERT DR,,NEW ORLEANS,LA,70114,4701 - HOTELS (EXC CASINO HOTELS) & MOTELS,"FEDERAL CITY INN & SUITES, LLC",,,
MELROSE MANSION,937 ESPLANADE AVE,,NEW ORLEANS,LA,70116,4701 - HOTELS (EXC CASINO HOTELS) & MOTELS,FRENCH QUARTER HOTEL COLLECTION LLC,3683279.543,535108.4934,"(29.9653086597149, -90.0623254834738)"
LAFAYETTE HOTEL,600 ST CHARLES AVE,,NEW ORLEANS,LA,70130,4701 - HOTELS (EXC CASINO HOTELS) & MOTELS,501 RUE DECATUR LLC.,3680589.626,528688.2488,"(29.9477369305066, -90.0710434565838)"
JW MARRIOT NEW ORLEANS,614 CANAL ST,,NEW ORLEANS,LA,70130,4701 - HOTELS (EXC CASINO HOTELS) & MOTELS,"MARRIOT HOTEL SERVICES,",3681254.208,530504.0965,"(29.9527097524767, -90.0688818422529)"
CITY HOUSE HOSTELS NEW ORLEANS,129 BURGUNDY ST,,NEW ORLEANS,LA,70112,4701 - HOTELS (EXC CASINO HOTELS) & MOTELS,NICHOLAS RUDOLPH,3680471.876,531572.2411,"(29.9556705043782, -90.0713149479095)"
THE CORSAIR HOTEL,4125 ST. CHARLES AVE,,NEW ORLEANS,LA,70115,4701 - HOTELS (EXC CASINO HOTELS) & MOTELS,"CORSAIR NEW ORLEANS, LLC.",,,
"COUNTRY INN & SUITES,NEW ORLEANS I-10 EAST",5801 READ BLVD,,NEW ORLEANS,LA,70127,4701 - HOTELS (EXC CASINO HOTELS) & MOTELS,CIS NOLA LLC,3711130.33,560962.8311,"(30.0355193458883, -89.9734059508498)"
HOSTEEVA CALIFORNIA BUILDING BY HOSTEEVA,1111 TULANE AVE,,NEW ORLEANS,LA,70112,4701 - HOTELS (EXC CASINO HOTELS) & MOTELS,"HOSTEEVA, LLC",3679544.321,531140.7983,"(29.9545122401432, -90.0742588081914)"
HOSTEEVA,4333 CANAL ST,,NEW ORLEANS,LA,70119,4701 - HOTELS (EXC CASINO HOTELS) & MOTELS,HOSTEEVA LLC,3670145.811,539281.2303,"(29.9771763302441, -90.1036598553152)"
NOLA10LLC,6303 CHEF MENTEUR HWY,,NEW ORLEANS,LA,70126,4701 - HOTELS (EXC CASINO HOTELS) & MOTELS,NOLA10LLC,3698077.369,551900.1108,"(30.0110198249587, -90.0149848536)"
